{
  "features": [
    {
      "geometry": {
        "coordinates": [
          [
            1.32,
            51.11
          ],
          [
            1.856513090438788,
            50.96817733335035
          ],
          [
            1.8593275053132807,
            50.968645609113054
          ]
        ],
        "type": "LineString"
      },
      "properties": {
        "category": "sailing",
        "distance_nm": "22.1",
        "land_legs": [
          2
        ],
        "name": "English Channel",
        "stroke": "#0088ff",
        "stroke-opacity": 0.8,
        "stroke-width": 3
      },
      "type": "Feature"
    },
    {
      "geometry": {
        "coordinates": [
          1.32,
          51.11
        ],
        "type": "Point"
      },
      "properties": {
        "marker-color": "#00cc00",
        "marker-size": "small",
        "marker-symbol": "circle",
        "name": "English Channel (start)"
      },
      "type": "Feature"
    },
    {
      "geometry": {
        "coordinates": [
          1.86,
          50.97
        ],
        "type": "Point"
      },
      "properties": {
        "marker-color": "#ff0000",
        "marker-size": "small",
        "marker-symbol": "circle",
        "name": "English Channel (end)"
      },
      "type": "Feature"
    },
    {
      "geometry": {
        "coordinates": [
          [
            28.28,
            36.85
          ],
          [
            28.26449896874564,
            36.81161564690978
          ],
          [
            28.270986562209462,
            36.79488103788718
          ],
          [
            28.30515929161534,
            36.728568455003916
          ],
          [
            28.245069676056225,
            36.44004220175944
          ]
        ],
        "type": "LineString"
      },
      "properties": {
        "category": "sailing",
        "distance_nm": "25.3",
        "land_legs": [
          4
        ],
        "name": "Aegean Hop",
        "stroke": "#0088ff",
        "stroke-opacity": 0.8,
        "stroke-width": 3
      },
      "type": "Feature"
    },
    {
      "geometry": {
        "coordinates": [
          28.28,
          36.85
        ],
        "type": "Point"
      },
      "properties": {
        "marker-color": "#00cc00",
        "marker-size": "small",
        "marker-symbol": "circle",
        "name": "Aegean Hop (start)"
      },
      "type": "Feature"
    },
    {
      "geometry": {
        "coordinates": [
          28.23,
          36.44
        ],
        "type": "Point"
      },
      "properties": {
        "marker-color": "#ff0000",
        "marker-size": "small",
        "marker-symbol": "circle",
        "name": "Aegean Hop (end)"
      },
      "type": "Feature"
    },
    {
      "geometry": {
        "coordinates": [
          [
            -5.360094299770183,
            36.12271290528679
          ],
          [
            -5.4472283279867035,
            36.056112442224226
          ],
          [
            -5.812893356955655,
            35.798956006973064
          ]
        ],
        "type": "LineString"
      },
      "properties": {
        "category": "sailing",
        "distance_nm": "29.4",
        "land_legs": [
          0,
          3
        ],
        "name": "Strait of Gibraltar",
        "stroke": "#0088ff",
        "stroke-opacity": 0.8,
        "stroke-width": 3
      },
      "type": "Feature"
    },
    {
      "geometry": {
        "coordinates": [
          -5.35,
          36.13
        ],
        "type": "Point"
      },
      "properties": {
        "marker-color": "#00cc00",
        "marker-size": "small",
        "marker-symbol": "circle",
        "name": "Strait of Gibraltar (start)"
      },
      "type": "Feature"
    },
    {
      "geometry": {
        "coordinates": [
          -5.81,
          35.79
        ],
        "type": "Point"
      },
      "properties": {
        "marker-color": "#ff0000",
        "marker-size": "small",
        "marker-symbol": "circle",
        "name": "Strait of Gibraltar (end)"
      },
      "type": "Feature"
    },
    {
      "geometry": {
        "coordinates": [
          [
            24.97,
            60.14
          ],
          [
            24.96625132449358,
            60.12126877232547
          ],
          [
            24.795955330451935,
            59.57260508519298
          ],
          [
            24.7627080984006,
            59.526029529228595
          ],
          [
            24.76,
            59.45
          ]
        ],
        "type": "LineString"
      },
      "properties": {
        "category": "sailing",
        "distance_nm": "42.0",
        "land_legs": [],
        "name": "Baltic Crossing",
        "stroke": "#0088ff",
        "stroke-opacity": 0.8,
        "stroke-width": 3
      },
      "type": "Feature"
    },
    {
      "geometry": {
        "coordinates": [
          24.97,
          60.14
        ],
        "type": "Point"
      },
      "properties": {
        "marker-color": "#00cc00",
        "marker-size": "small",
        "marker-symbol": "circle",
        "name": "Baltic Crossing (start)"
      },
      "type": "Feature"
    },
    {
      "geometry": {
        "coordinates": [
          24.76,
          59.45
        ],
        "type": "Point"
      },
      "properties": {
        "marker-color": "#ff0000",
        "marker-size": "small",
        "marker-symbol": "circle",
        "name": "Baltic Crossing (end)"
      },
      "type": "Feature"
    },
    {
      "geometry": {
        "coordinates": [
          [
            2.64,
            39.55
          ],
          [
            2.522280902194799,
            39.45568124520651
          ],
          [
            2.473632930564236,
            39.46452720715372
          ],
          [
            2.36140222111856,
            39.532681144105496
          ],
          [
            2.344374912048885,
            39.56857786514056
          ],
          [
            2.196787121165586,
            41.3722746302922
          ]
        ],
        "type": "LineString"
      },
      "properties": {
        "category": "sailing",
        "distance_nm": "127.6",
        "land_legs": [
          5
        ],
        "name": "Balearic Sea",
        "stroke": "#0088ff",
        "stroke-opacity": 0.8,
        "stroke-width": 3
      },
      "type": "Feature"
    },
    {
      "geometry": {
        "coordinates": [
          2.64,
          39.55
        ],
        "type": "Point"
      },
      "properties": {
        "marker-color": "#00cc00",
        "marker-size": "small",
        "marker-symbol": "circle",
        "name": "Balearic Sea (start)"
      },
      "type": "Feature"
    },
    {
      "geometry": {
        "coordinates": [
          2.18,
          41.37
        ],
        "type": "Point"
      },
      "properties": {
        "marker-color": "#ff0000",
        "marker-size": "small",
        "marker-symbol": "circle",
        "name": "Balearic Sea (end)"
      },
      "type": "Feature"
    },
    {
      "geometry": {
        "coordinates": [
          [
            -81.78804734032963,
            24.541826009312075
          ],
          [
            -82.35912289752139,
            23.155290780484133
          ]
        ],
        "type": "LineString"
      },
      "properties": {
        "category": "sailing",
        "distance_nm": "89.0",
        "land_legs": [
          0,
          2
        ],
        "name": "Florida Strait",
        "stroke": "#0088ff",
        "stroke-opacity": 0.8,
        "stroke-width": 3
      },
      "type": "Feature"
    },
    {
      "geometry": {
        "coordinates": [
          -81.79,
          24.55
        ],
        "type": "Point"
      },
      "properties": {
        "marker-color": "#00cc00",
        "marker-size": "small",
        "marker-symbol": "circle",
        "name": "Florida Strait (start)"
      },
      "type": "Feature"
    },
    {
      "geometry": {
        "coordinates": [
          -82.35,
          23.15
        ],
        "type": "Point"
      },
      "properties": {
        "marker-color": "#ff0000",
        "marker-size": "small",
        "marker-symbol": "circle",
        "name": "Florida Strait (end)"
      },
      "type": "Feature"
    },
    {
      "geometry": {
        "coordinates": [
          [
            103.86,
            1.26
          ],
          [
            103.84156073325585,
            1.2611943780194
          ],
          [
            103.83369933887838,
            1.2650993208171313
          ],
          [
            103.81616611710173,
            1.2609784140318585
          ],
          [
            103.80661556826773,
            1.2606250757985331
          ],
          [
            103.64097256453863,
            1.2087586596235727
          ],
          [
            103.59898212704164,
            1.2208019368418417
          ],
          [
            103.4910392260745,
            1.273111360598663
          ],
          [
            103.43968914957769,
            1.326538052015846
          ],
          [
            103.21662752781288,
            1.5385640173173654
          ],
          [
            102.68205792866377,
            1.8691658406525395
          ],
          [
            102.33340602658218,
            2.1174693963343643
          ],
          [
            102.10689573131074,
            2.2359588455856225
          ],
          [
            101.46292180643408,
            2.659092874619786
          ],
          [
            101.27785634639959,
            2.8524720851076357
          ],
          [
            101.19492683820985,
            2.9534838112419255
          ],
          [
            98.42400669323752,
            7.800815384743822
          ],
          [
            98.42006652569043,
            7.832744155880245
          ],
          [
            98.4060376523191,
            7.8699952489846625
          ]
        ],
        "type": "LineString"
      },
      "properties": {
        "category": "sailing",
        "distance_nm": "534.5",
        "land_legs": [
          18
        ],
        "name": "Malacca Route",
        "stroke": "#0088ff",
        "stroke-opacity": 0.8,
        "stroke-width": 3
      },
      "type": "Feature"
    },
    {
      "geometry": {
        "coordinates": [
          103.86,
          1.26
        ],
        "type": "Point"
      },
      "properties": {
        "marker-color": "#00cc00",
        "marker-size": "small",
        "marker-symbol": "circle",
        "name": "Malacca Route (start)"
      },
      "type": "Feature"
    },
    {
      "geometry": {
        "coordinates": [
          98.38,
          7.88
        ],
        "type": "Point"
      },
      "properties": {
        "marker-color": "#ff0000",
        "marker-size": "small",
        "marker-symbol": "circle",
        "name": "Malacca Route (end)"
      },
      "type": "Feature"
    },
    {
      "geometry": {
        "coordinates": [
          [
            151.2916285000194,
            -33.86196910746988
          ],
          [
            173.0292399481778,
            -34.393069494166625
          ],
          [
            173.05699808336433,
            -34.417100152148144
          ],
          [
            173.94672845593425,
            -34.97903846789525
          ],
          [
            173.95865384465208,
            -34.98017349831714
          ],
          [
            174.33653425836656,
            -35.17054940306226
          ],
          [
            174.3646744276256,
            -35.261502133350305
          ],
          [
            174.4348766370829,
            -35.430095239905334
          ],
          [
            174.54419197041764,
            -35.585110266228774
          ],
          [
            174.72116470179523,
            -36.02679234387969
          ],
          [
            174.87019026920407,
            -36.36734966804839
          ],
          [
            174.89262869916874,
            -36.511724297515045
          ],
          [
            174.81452795357083,
            -36.83019487107417
          ],
          [
            174.79411729370744,
            -36.834418490999624
          ],
          [
            174.78,
            -36.83
          ]
        ],
        "type": "LineString"
      },
      "properties": {
        "category": "sailing",
        "distance_nm": "1265.1",
        "land_legs": [
          0
        ],
        "name": "Tasman Sea",
        "stroke": "#0088ff",
        "stroke-opacity": 0.8,
        "stroke-width": 3
      },
      "type": "Feature"
    },
    {
      "geometry": {
        "coordinates": [
          151.28,
          -33.86
        ],
        "type": "Point"
      },
      "properties": {
        "marker-color": "#00cc00",
        "marker-size": "small",
        "marker-symbol": "circle",
        "name": "Tasman Sea (start)"
      },
      "type": "Feature"
    },
    {
      "geometry": {
        "coordinates": [
          174.78,
          -36.83
        ],
        "type": "Point"
      },
      "properties": {
        "marker-color": "#ff0000",
        "marker-size": "small",
        "marker-symbol": "circle",
        "name": "Tasman Sea (end)"
      },
      "type": "Feature"
    },
    {
      "geometry": {
        "coordinates": [
          [
            18.438918043818905,
            -33.899125123904014
          ],
          [
            18.431014456205787,
            -33.8947878748403
          ],
          [
            18.396055307914818,
            -33.90067523313446
          ],
          [
            -43.00484267627137,
            -23.014959796089382
          ],
          [
            -43.07046043615733,
            -22.985321590041725
          ],
          [
            -43.13523564694147,
            -22.93905263354121
          ],
          [
            -43.16,
            -22.91
          ]
        ],
        "type": "LineString"
      },
      "properties": {
        "category": "sailing",
        "distance_nm": "3272.4",
        "land_legs": [
          0
        ],
        "name": "South Atlantic",
        "stroke": "#0088ff",
        "stroke-opacity": 0.8,
        "stroke-width": 3
      },
      "type": "Feature"
    },
    {
      "geometry": {
        "coordinates": [
          18.43,
          -33.92
        ],
        "type": "Point"
      },
      "properties": {
        "marker-color": "#00cc00",
        "marker-size": "small",
        "marker-symbol": "circle",
        "name": "South Atlantic (start)"
      },
      "type": "Feature"
    },
    {
      "geometry": {
        "coordinates": [
          -43.16,
          -22.91
        ],
        "type": "Point"
      },
      "properties": {
        "marker-color": "#ff0000",
        "marker-size": "small",
        "marker-symbol": "circle",
        "name": "South Atlantic (end)"
      },
      "type": "Feature"
    },
    {
      "geometry": {
        "coordinates": [
          [
            -74.03,
            40.65
          ],
          [
            -74.04467691380952,
            40.63508424049782
          ],
          [
            -74.03969874407163,
            40.60995540130499
          ],
          [
            -74.00629936705212,
            40.56714740236368
          ],
          [
            -73.94070793178253,
            40.540288198512215
          ],
          [
            -73.31003351368196,
            40.59198775050482
          ],
          [
            -68.57876494840544,
            41.78200223960276
          ],
          [
            -5.18037311939027,
            49.959326059611534
          ],
          [
            -3.5570658137819198,
            50.21756779620573
          ],
          [
            -1.8232324492429972,
            50.61130652270743
          ],
          [
            -1.497900491156845,
            50.72355925050111
          ],
          [
            -1.3360939977157222,
            50.78795286708477
          ],
          [
            -1.3045702576442666,
            50.81630143302272
          ],
          [
            -1.3102407246734424,
            50.826310076166955
          ],
          [
            -1.379440002561068,
            50.88385585855285
          ]
        ],
        "type": "LineString"
      },
      "properties": {
        "category": "sailing",
        "distance_nm": "3040.6",
        "land_legs": [
          14
        ],
        "name": "North Atlantic",
        "stroke": "#0088ff",
        "stroke-opacity": 0.8,
        "stroke-width": 3
      },
      "type": "Feature"
    },
    {
      "geometry": {
        "coordinates": [
          -74.03,
          40.65
        ],
        "type": "Point"
      },
      "properties": {
        "marker-color": "#00cc00",
        "marker-size": "small",
        "marker-symbol": "circle",
        "name": "North Atlantic (start)"
      },
      "type": "Feature"
    },
    {
      "geometry": {
        "coordinates": [
          -1.39,
          50.89
        ],
        "type": "Point"
      },
      "properties": {
        "marker-color": "#ff0000",
        "marker-size": "small",
        "marker-symbol": "circle",
        "name": "North Atlantic (end)"
      },
      "type": "Feature"
    },
    {
      "geometry": {
        "coordinates": [
          [
            4.040558126860093,
            51.918695752110686
          ],
          [
            -3.8942341755293506,
            49.20937662261128
          ],
          [
            -6.137780312003432,
            47.606246924208506
          ],
          [
            -9.30539686543261,
            43.05061911833142
          ],
          [
            -9.298979544402775,
            42.91937216528012
          ],
          [
            -9.505736026669597,
            38.75303189311749
          ],
          [
            -8.998625143877536,
            37.020636179013245
          ],
          [
            -8.942165107463905,
            36.98937423098223
          ],
          [
            -5.607433976356836,
            35.99850200956012
          ],
          [
            -5.437249651575056,
            36.058415811974406
          ],
          [
            3.8983306646783085,
            36.924103684235334
          ],
          [
            4.507632034490946,
            36.918529441556295
          ],
          [
            7.321337626796342,
            37.16853197963197
          ],
          [
            9.755071986826977,
            37.34839935107274
          ],
          [
            9.868961494583774,
            37.33576305187621
          ],
          [
            10.893590848830618,
            37.08553240077457
          ],
          [
            11.037105706937341,
            37.08940006232898
          ],
          [
            31.960346221297325,
            31.507710169015194
          ],
          [
            32.32078848524257,
            31.27378983328308
          ]
        ],
        "type": "LineString"
      },
      "properties": {
        "category": "sailing",
        "distance_nm": "8245.7",
        "land_legs": [
          0,
          19,
          40
        ],
        "name": "Rotterdam-Singapore (part 1/3)",
        "part": 1,
        "parts": 3,
        "stroke": "#0088ff",
        "stroke-opacity": 0.8,
        "stroke-width": 3
      },
      "type": "Feature"
    },
    {
      "geometry": {
        "coordinates": [
          [
            32.32246797663744,
            31.273613545479773
          ],
          [
            32.30681964432927,
            31.24559815669577
          ],
          [
            32.30530570480312,
            31.189404311409888
          ],
          [
            32.31993525797823,
            30.80259584969962
          ],
          [
            32.339253170202774,
            30.739523151824024
          ],
          [
            32.35185552531765,
            30.702588557549255
          ],
          [
            32.34931040936602,
            30.672749514646494
          ],
          [
            32.331779728145364,
            30.593586946808635
          ],
          [
            32.341154029995565,
            30.538748624337142
          ],
          [
            32.356863447846216,
            30.453131878335032
          ],
          [
            32.36698854028695,
            30.395661954646787
          ],
          [
            32.451047029893516,
            30.28336076077252
          ],
          [
            32.49114516679857,
            30.263874203935902
          ],
          [
            32.502995045947685,
            30.26008089271564
          ],
          [
            32.53143941998066,
            30.241810502458012
          ],
          [
            32.56248281889309,
            30.194841163087144
          ],
          [
            32.568958992312425,
            30.161495234099757
          ],
          [
            32.573202057105775,
            30.05075622540285
          ],
          [
            32.5862140224469,
            29.972171251451183
          ],
          [
            32.581432893829394,
            29.953161425365455
          ],
          [
            32.559752219213266,
            29.927024962623495
          ]
        ],
        "type": "LineString"
      },
      "properties": {
        "category": "sailing",
        "distance_nm": "8245.7",
        "land_legs": [
          0,
          19,
          40
        ],
        "name": "Rotterdam-Singapore (part 2/3)",
        "part": 2,
        "parts": 3,
        "stroke": "#0088ff",
        "stroke-opacity": 0.8,
        "stroke-width": 3
      },
      "type": "Feature"
    },
    {
      "geometry": {
        "coordinates": [
          [
            32.55952890717144,
            29.925351437098005
          ],
          [
            32.71786417801364,
            29.446527636353405
          ],
          [
            33.24732958775155,
            28.53465840866333
          ],
          [
            33.80499032184332,
            27.603536395950947
          ],
          [
            37.123184190463014,
            21.67554744122618
          ],
          [
            38.744108924216626,
            18.601019225886716
          ],
          [
            43.3976988241174,
            12.735744945787653
          ],
          [
            43.461259520215336,
            12.67063284364898
          ],
          [
            43.96784106847156,
            12.58866622689777
          ],
          [
            44.36908740592603,
            12.638103484270786
          ],
          [
            52.31965497796334,
            12.234304431865688
          ],
          [
            53.06841706590408,
            12.122940751439831
          ],
          [
            85.38016801410367,
            4.823692973430038
          ],
          [
            95.29655669653269,
            5.778163263665021
          ],
          [
            97.5203473360277,
            5.244052193391314
          ],
          [
            103.43968914957769,
            1.326538052015846
          ],
          [
            103.49796781348633,
            1.2659832641563604
          ],
          [
            103.63141599508448,
            1.2084034947104616
          ],
          [
            103.68813080363655,
            1.2171666630176474
          ],
          [
            103.8,
            1.26
          ]
        ],
        "type": "LineString"
      },
      "properties": {
        "category": "sailing",
        "distance_nm": "8245.7",
        "land_legs": [
          0,
          19,
          40
        ],
        "name": "Rotterdam-Singapore (part 3/3)",
        "part": 3,
        "parts": 3,
        "stroke": "#0088ff",
        "stroke-opacity": 0.8,
        "stroke-width": 3
      },
      "type": "Feature"
    },
    {
      "geometry": {
        "coordinates": [
          4.05,
          51.95
        ],
        "type": "Point"
      },
      "properties": {
        "marker-color": "#00cc00",
        "marker-size": "small",
        "marker-symbol": "circle",
        "name": "Rotterdam-Singapore (start)"
      },
      "type": "Feature"
    },
    {
      "geometry": {
        "coordinates": [
          103.8,
          1.26
        ],
        "type": "Point"
      },
      "properties": {
        "marker-color": "#ff0000",
        "marker-size": "small",
        "marker-symbol": "circle",
        "name": "Rotterdam-Singapore (end)"
      },
      "type": "Feature"
    },
    {
      "geometry": {
        "coordinates": [
          [
            122.00886110741976,
            31.228566874640467
          ],
          [
            122.05240110350265,
            31.214073627760367
          ],
          [
            122.05993255198089,
            31.197304104776716
          ],
          [
            122.24510665557268,
            30.299285171902156
          ],
          [
            122.24455150052229,
            30.285898568070976
          ],
          [
            122.25032015865942,
            30.238446597477658
          ],
          [
            122.34691079262949,
            30.015492872077086
          ],
          [
            122.32263940921204,
            29.929721255456943
          ],
          [
            122.35029050189644,
            29.868042366040488
          ],
          [
            122.30934832473879,
            29.734638970543593
          ],
          [
            122.16876036720045,
            29.44201981729868
          ],
          [
            122.06856661050706,
            29.17378625306697
          ],
          [
            122.00003096758408,
            29.057900705277355
          ],
          [
            121.8528964563448,
            28.76008067821611
          ],
          [
            121.84212496604891,
            28.744776283546752
          ],
          [
            121.68388898934194,
            28.347794560853547
          ],
          [
            121.62334999640326,
            28.259977542349763
          ],
          [
            121.20667975198721,
            27.79064249120803
          ],
          [
            120.38960207814104,
            26.677928043712818
          ],
          [
            120.363032639071,
            26.63548772046652
          ],
          [
            119.92417249903153,
            25.930806256150564
          ],
          [
            119.75293986072789,
            25.686125769526317
          ],
          [
            119.72199872478606,
            25.644677442500488
          ],
          [
            119.6975998001665,
            25.62119975606674
          ],
          [
            119.68184703593802,
            25.60247439163687
          ],
          [
            119.67252962241594,
            25.495904005720842
          ],
          [
            119.66968739119669,
            25.463234518489788
          ],
          [
            119.66709645403549,
            25.3794444858705
          ],
          [
            119.65026329168153,
            25.35010105501572
          ],
          [
            119.58072821492676,
            25.30192941830455
          ],
          [
            119.50077575120777,
            25.279749065492698
          ],
          [
            119.45145730656974,
            25.252151176844077
          ],
          [
            119.43395788612243,
            25.237614491279604
          ],
          [
            117.8789700592002,
            23.848156476719932
          ],
          [
            105.48603107185629,
            3.0821815660172915
          ],
          [
            104.28153215579381,
            1.3650341714182022
          ],
          [
            104.2006647428481,
            1.335174646570131
          ],
          [
            103.83499487175294,
            1.2331754133306072
          ],
          [
            103.72213980276705,
            1.214522771404932
          ],
          [
            103.63141599508448,
            1.2084034947104616
          ],
          [
            103.56979874410291,
            1.234047352153327
          ],
          [
            103.48872958197144,
            1.2754874981428088
          ],
          [
            103.43968914957769,
            1.326538052015846
          ],
          [
            103.21662752781288,
            1.5385640173173654
          ],
          [
            99.56824270381586,
            3.6734075317606227
          ],
          [
            97.5064194641828,
            5.249613927760135
          ],
          [
            95.2680822126716,
            5.782489134083809
          ],
          [
            80.35454176499954,
            5.89795484965762
          ],
          [
            46.58038884724691,
            12.944847315032384
          ],
          [
            44.79920014641069,
            12.71460571314971
          ],
          [
            44.1048120598451,
            12.596059476853252
          ],
          [
            43.932236136916224,
            12.592914530750873
          ],
          [
            43.45829598881352,
            12.672118277903124
          ],
          [
            39.313454115480525,
            17.758801586649174
          ],
          [
            38.79582775136766,
            18.557791084094543
          ],
          [
            36.87227235032238,
            22.112995486703472
          ],
          [
            35.75455629867033,
            23.973409236622977
          ],
          [
            33.61432330507996,
            27.957035916979223
          ],
          [
            33.206812056301175,
            28.60439329025021
          ],
          [
            32.71633630397062,
            29.44966014448291
          ],
          [
            32.55952890717144,
            29.925351437098005
          ]
        ],
        "type": "LineString"
      },
      "properties": {
        "category": "sailing",
        "distance_nm": "10366.9",
        "land_legs": [
          0,
          61,
          83,
          103
        ],
        "name": "Shanghai-Rotterdam (part 1/3)",
        "part": 1,
        "parts": 3,
        "stroke": "#0088ff",
        "stroke-opacity": 0.8,
        "stroke-width": 3
      },
      "type": "Feature"
    },
    {
      "geometry": {
        "coordinates": [
          [
            32.559752219213266,
            29.927024962623495
          ],
          [
            32.581432893829394,
            29.953161425365455
          ],
          [
            32.5862140224469,
            29.972171251451183
          ],
          [
            32.57059956850316,
            30.081574440231307
          ],
          [
            32.56819890380799,
            30.170483216747748
          ],
          [
            32.562153461072235,
            30.196572645483343
          ],
          [
            32.52723637351527,
            30.246071665779162
          ],
          [
            32.499008725075235,
            30.261773439095045
          ],
          [
            32.461350660271584,
            30.27846087426069
          ],
          [
            32.4497173929185,
            30.283924547284464
          ],
          [
            32.44440465561843,
            30.301025097778812
          ],
          [
            32.36698854028695,
            30.395661954646787
          ],
          [
            32.356863447846216,
            30.453131878335032
          ],
          [
            32.34093146175784,
            30.539195964525046
          ],
          [
            32.331779728145364,
            30.593586946808635
          ],
          [
            32.35241523944734,
            30.696169816097665
          ],
          [
            32.34549661800997,
            30.726998157733284
          ],
          [
            32.334791145701615,
            30.750589567324262
          ],
          [
            32.31713484155129,
            30.819846953170554
          ],
          [
            32.30515652296713,
            31.22882489820963
          ],
          [
            32.309384361699465,
            31.256344919986255
          ],
          [
            32.32246797663744,
            31.273613545479773
          ]
        ],
        "type": "LineString"
      },
      "properties": {
        "category": "sailing",
        "distance_nm": "10366.9",
        "land_legs": [
          0,
          61,
          83,
          103
        ],
        "name": "Shanghai-Rotterdam (part 2/3)",
        "part": 2,
        "parts": 3,
        "stroke": "#0088ff",
        "stroke-opacity": 0.8,
        "stroke-width": 3
      },
      "type": "Feature"
    },
    {
      "geometry": {
        "coordinates": [
          [
            32.32078848524257,
            31.27378983328308
          ],
          [
            31.950888409202662,
            31.511642479453112
          ],
          [
            31.8806718413782,
            31.526000156782448
          ],
          [
            11.035601828381303,
            37.089702472473995
          ],
          [
            10.70473301486867,
            37.09164591088294
          ],
          [
            9.977940766495648,
            37.29597946724406
          ],
          [
            9.854347454753636,
            37.33742034107843
          ],
          [
            9.733362354802775,
            37.35026479099036
          ],
          [
            6.386979395912754,
            37.08390115881067
          ],
          [
            -4.504138482731935,
            36.39650915319008
          ],
          [
            -5.605086849101994,
            35.99936814412422
          ],
          [
            -5.612434268183093,
            36.0000615198543
          ],
          [
            -8.951816707689282,
            36.99332202582168
          ],
          [
            -8.999290594074118,
            37.021778653194175
          ],
          [
            -9.517539739451678,
            38.80753553118832
          ],
          [
            -9.301436028971343,
            43.05679382937029
          ],
          [
            -8.703434804999326,
            43.857540090849014
          ],
          [
            -4.341442909222876,
            49.16775717326113
          ],
          [
            4.0199078051782084,
            51.90816257491509
          ],
          [
            4.040558126860093,
            51.918695752110686
          ]
        ],
        "type": "LineString"
      },
      "properties": {
        "category": "sailing",
        "distance_nm": "10366.9",
        "land_legs": [
          0,
          61,
          83,
          103
        ],
        "name": "Shanghai-Rotterdam (part 3/3)",
        "part": 3,
        "parts": 3,
        "stroke": "#0088ff",
        "stroke-opacity": 0.8,
        "stroke-width": 3
      },
      "type": "Feature"
    },
    {
      "geometry": {
        "coordinates": [
          122.0,
          31.2
        ],
        "type": "Point"
      },
      "properties": {
        "marker-color": "#00cc00",
        "marker-size": "small",
        "marker-symbol": "circle",
        "name": "Shanghai-Rotterdam (start)"
      },
      "type": "Feature"
    },
    {
      "geometry": {
        "coordinates": [
          4.05,
          51.95
        ],
        "type": "Point"
      },
      "properties": {
        "marker-color": "#ff0000",
        "marker-size": "small",
        "marker-symbol": "circle",
        "name": "Shanghai-Rotterdam (end)"
      },
      "type": "Feature"
    },
    {
      "geometry": {
        "coordinates": [
          [
            139.8,
            35.3
          ],
          [
            139.7499127644835,
            34.96766689178203
          ],
          [
            139.762898374352,
            34.95132317839124
          ],
          [
            139.83951136719438,
            34.89855867929545
          ],
          [
            139.9120388397972,
            34.898508540506896
          ],
          [
            139.9506979964688,
            34.92044244870742
          ],
          [
            140.34058683677392,
            35.14483721989442
          ],
          [
            140.46612948596226,
            35.258642522141244
          ],
          [
            140.87519834601716,
            35.695911576871
          ],
          [
            146.5994234670569,
            43.82799976548718
          ],
          [
            148.84596286706227,
            45.33830109778671
          ],
          [
            153.83888010066005,
            48.56131397976834
          ],
          [
            -173.7488333164631,
            53.77791083621316
          ],
          [
            -165.57050835064405,
            54.3023221629446
          ],
          [
            -164.30988508855015,
            54.386161787865426
          ],
          [
            -162.35333232624708,
            54.62383881236116
          ],
          [
            -133.89227428401156,
            52.30309672012491
          ],
          [
            -127.92072953735297,
            50.8883526428315
          ],
          [
            -127.41923587649511,
            50.75826123620024
          ],
          [
            -127.38074127678775,
            50.7298533508759
          ],
          [
            -127.24450400468973,
            50.657566309953225
          ],
          [
            -127.11399114860316,
            50.61715780546822
          ],
          [
            -126.85111363389574,
            50.56037585857695
          ],
          [
            -126.52671762415754,
            50.510536405287354
          ],
          [
            -126.08687580367979,
            50.45360157945974
          ],
          [
            -125.84734594527023,
            50.386343251571866
          ],
          [
            -125.80695702102653,
            50.38295954632821
          ],
          [
            -125.72183372301627,
            50.37415874058908
          ],
          [
            -125.57452643445583,
            50.368075910707255
          ],
          [
            -125.43756863225634,
            50.33184663957738
          ],
          [
            -125.36726374053725,
            50.19145610367389
          ],
          [
            -125.34800620259527,
            50.129190139223546
          ],
          [
            -125.29812030182349,
            50.09823665177259
          ],
          [
            -125.19354452088294,
            49.995819438471194
          ],
          [
            -124.34395805295647,
            49.461259085915295
          ],
          [
            -123.67852398645242,
            49.15577185510978
          ],
          [
            -123.58796341174607,
            49.0237255648721
          ],
          [
            -123.59136859813489,
            48.992713815439316
          ],
          [
            -123.41208185672622,
            48.841838996378485
          ],
          [
            -123.37992874540878,
            48.790087405651185
          ],
          [
            -123.27404874702003,
            48.70597375750474
          ],
          [
            -123.15508856690134,
            48.51117733176614
          ],
          [
            -122.68625739041956,
            48.10109266417986
          ],
          [
            -122.50910848300224,
            47.894064649440125
          ],
          [
            -122.47034596553931,
            47.794514507926976
          ],
          [
            -122.44216836397987,
            47.62497958930828
          ],
          [
            -122.4,
            47.6
          ]
        ],
        "type": "LineString"
      },
      "properties": {
        "category": "sailing",
        "distance_nm": "4286.7",
        "land_legs": [],
        "name": "Tokyo-Seattle",
        "stroke": "#0088ff",
        "stroke-opacity": 0.8,
        "stroke-width": 3
      },
      "type": "Feature"
    },
    {
      "geometry": {
        "coordinates": [
          139.8,
          35.3
        ],
        "type": "Point"
      },
      "properties": {
        "marker-color": "#00cc00",
        "marker-size": "small",
        "marker-symbol": "circle",
        "name": "Tokyo-Seattle (start)"
      },
      "type": "Feature"
    },
    {
      "geometry": {
        "coordinates": [
          -122.4,
          47.6
        ],
        "type": "Point"
      },
      "properties": {
        "marker-color": "#ff0000",
        "marker-size": "small",
        "marker-symbol": "circle",
        "name": "Tokyo-Seattle (end)"
      },
      "type": "Feature"
    },
    {
      "geometry": {
        "coordinates": [
          [
            32.78563417450129,
            29.424889736644964
          ],
          [
            32.71654820342404,
            29.4470916584958
          ],
          [
            32.55952890717144,
            29.925351437098005
          ]
        ],
        "type": "LineString"
      },
      "properties": {
        "category": "passage",
        "distance_nm": "141.2",
        "land_legs": [
          0,
          3,
          25
        ],
        "name": "Suez Canal (part 1/3)",
        "part": 1,
        "parts": 3,
        "stroke": "#0000ff",
        "stroke-opacity": 0.8,
        "stroke-width": 3
      },
      "type": "Feature"
    },
    {
      "geometry": {
        "coordinates": [
          [
            32.559752219213266,
            29.927024962623495
          ],
          [
            32.581432893829394,
            29.953161425365455
          ],
          [
            32.5862140224469,
            29.972171251451183
          ],
          [
            32.57059956850316,
            30.081574440231307
          ],
          [
            32.56819890380799,
            30.170483216747748
          ],
          [
            32.562153461072235,
            30.196572645483343
          ],
          [
            32.529892901192035,
            30.24494288626177
          ],
          [
            32.499008725075235,
            30.261773439095045
          ],
          [
            32.461350660271584,
            30.27846087426069
          ],
          [
            32.4497173929185,
            30.283924547284464
          ],
          [
            32.44440465561843,
            30.301025097778812
          ],
          [
            32.36698854028695,
            30.395661954646787
          ],
          [
            32.356863447846216,
            30.453131878335032
          ],
          [
            32.33189181773964,
            30.59230300577484
          ],
          [
            32.34697814062094,
            30.663664756146378
          ],
          [
            32.35219136231319,
            30.698737317752176
          ],
          [
            32.343935913989874,
            30.730129422647288
          ],
          [
            32.331555852523614,
            30.758135631355593
          ],
          [
            32.31679724909677,
            30.823697836575203
          ],
          [
            32.30515652296713,
            31.22882489820963
          ],
          [
            32.30782401714923,
            31.248882323849685
          ],
          [
            32.32246797663744,
            31.273613545479773
          ]
        ],
        "type": "LineString"
      },
      "properties": {
        "category": "passage",
        "distance_nm": "141.2",
        "land_legs": [
          0,
          3,
          25
        ],
        "name": "Suez Canal (part 2/3)",
        "part": 2,
        "parts": 3,
        "stroke": "#0000ff",
        "stroke-opacity": 0.8,
        "stroke-width": 3
      },
      "type": "Feature"
    },
    {
      "geometry": {
        "coordinates": [
          [
            32.32145961595434,
            31.27456670126959
          ],
          [
            32.0,
            31.5
          ]
        ],
        "type": "LineString"
      },
      "properties": {
        "category": "passage",
        "distance_nm": "141.2",
        "land_legs": [
          0,
          3,
          25
        ],
        "name": "Suez Canal (part 3/3)",
        "part": 3,
        "parts": 3,
        "stroke": "#0000ff",
        "stroke-opacity": 0.8,
        "stroke-width": 3
      },
      "type": "Feature"
    },
    {
      "geometry": {
        "coordinates": [
          32.85,
          29.5
        ],
        "type": "Point"
      },
      "properties": {
        "marker-color": "#00cc00",
        "marker-size": "small",
        "marker-symbol": "circle",
        "name": "Suez Canal (start)"
      },
      "type": "Feature"
    },
    {
      "geometry": {
        "coordinates": [
          32.0,
          31.5
        ],
        "type": "Point"
      },
      "properties": {
        "marker-color": "#ff0000",
        "marker-size": "small",
        "marker-symbol": "circle",
        "name": "Suez Canal (end)"
      },
      "type": "Feature"
    },
    {
      "geometry": {
        "coordinates": [
          [
            -79.45,
            8.8
          ],
          [
            -79.56752492976197,
            8.94824594552513
          ],
          [
            -79.58138188777197,
            8.971109547955841
          ],
          [
            -79.58283958472856,
            8.973271720962904
          ]
        ],
        "type": "LineString"
      },
      "properties": {
        "category": "passage",
        "distance_nm": "53.2",
        "land_legs": [
          3,
          11,
          21,
          60
        ],
        "name": "Panama Canal (part 1/5)",
        "part": 1,
        "parts": 5,
        "stroke": "#0000ff",
        "stroke-opacity": 0.8,
        "stroke-width": 3
      },
      "type": "Feature"
    },
    {
      "geometry": {
        "coordinates": [
          [
            -79.58275791223697,
            8.973482767169212
          ],
          [
            -79.61109448301292,
            9.009774584442727
          ],
          [
            -79.647128745458,
            9.04300089957501
          ],
          [
            -79.67147485575263,
            9.0708456265669
          ],
          [
            -79.68963515799017,
            9.102793880215339
          ],
          [
            -79.69247584893958,
            9.105653779963632
          ],
          [
            -79.69804457042609,
            9.10921770085903
          ],
          [
            -79.70757693302302,
            9.113412636110233
          ]
        ],
        "type": "LineString"
      },
      "properties": {
        "category": "passage",
        "distance_nm": "53.2",
        "land_legs": [
          3,
          11,
          21,
          60
        ],
        "name": "Panama Canal (part 2/5)",
        "part": 2,
        "parts": 5,
        "stroke": "#0000ff",
        "stroke-opacity": 0.8,
        "stroke-width": 3
      },
      "type": "Feature"
    },
    {
      "geometry": {
        "coordinates": [
          [
            -79.7080583799691,
            9.113816682292098
          ],
          [
            -79.71124113691626,
            9.11463802650411
          ],
          [
            -79.72487625733602,
            9.117149087488725
          ],
          [
            -79.75120056914524,
            9.119631155491664
          ],
          [
            -79.77045455865569,
            9.115754710128266
          ],
          [
            -79.77212362762923,
            9.116520930978457
          ],
          [
            -79.77274718112055,
            9.117225398761297
          ],
          [
            -79.77422071078082,
            9.117117686518213
          ],
          [
            -79.77538163278872,
            9.117193193008735
          ],
          [
            -79.77677252463096,
            9.117831687985245
          ]
        ],
        "type": "LineString"
      },
      "properties": {
        "category": "passage",
        "distance_nm": "53.2",
        "land_legs": [
          3,
          11,
          21,
          60
        ],
        "name": "Panama Canal (part 3/5)",
        "part": 3,
        "parts": 5,
        "stroke": "#0000ff",
        "stroke-opacity": 0.8,
        "stroke-width": 3
      },
      "type": "Feature"
    },
    {
      "geometry": {
        "coordinates": [
          [
            -79.77838817941989,
            9.11802444414223
          ],
          [
            -79.78071523507884,
            9.119184145407498
          ],
          [
            -79.78432039123777,
            9.123583476004052
          ],
          [
            -79.78412750312278,
            9.125324523913559
          ],
          [
            -79.78664141285313,
            9.12849090958351
          ],
          [
            -79.78763611813872,
            9.130594010934518
          ],
          [
            -79.78859119721652,
            9.131999374852656
          ],
          [
            -79.78901060274367,
            9.132962848287548
          ],
          [
            -79.79576670731161,
            9.13688687837285
          ],
          [
            -79.7964995888325,
            9.137131763878045
          ],
          [
            -79.82091890594785,
            9.163127164846607
          ],
          [
            -79.84016312423155,
            9.180942704556843
          ],
          [
            -79.85930834765907,
            9.185426912535398
          ],
          [
            -79.88037238828385,
            9.205783029400692
          ],
          [
            -79.88578503016309,
            9.20863048631153
          ],
          [
            -79.90574904066918,
            9.231493231167294
          ],
          [
            -79.90645522651832,
            9.231451373952362
          ],
          [
            -79.9070694106523,
            9.233286549272396
          ],
          [
            -79.90855406090985,
            9.237805347134113
          ],
          [
            -79.90948995138864,
            9.238325710582973
          ],
          [
            -79.93087321034979,
            9.26311090593543
          ],
          [
            -79.936091339231,
            9.26769461905792
          ],
          [
            -79.93860350187065,
            9.270855552891328
          ],
          [
            -79.94320108495567,
            9.283101832968786
          ],
          [
            -79.94387262315337,
            9.283370346525551
          ],
          [
            -79.94917676088903,
            9.282459766542994
          ],
          [
            -79.95592104107568,
            9.284361957728885
          ],
          [
            -79.96430508967703,
            9.281521251798344
          ],
          [
            -79.96537012103177,
            9.281930832729262
          ],
          [
            -79.9664651052015,
            9.284168060721013
          ],
          [
            -79.97006374061638,
            9.293306613561029
          ],
          [
            -79.97297712194458,
            9.296011110819029
          ],
          [
            -79.97446902416071,
            9.296785775674985
          ],
          [
            -79.97575786025656,
            9.29728475198813
          ],
          [
            -79.97832643150312,
            9.296269118342666
          ],
          [
            -79.98220586737824,
            9.295031763042791
          ],
          [
            -79.9832166452807,
            9.295403364219334
          ],
          [
            -79.99249972446931,
            9.306504871979385
          ],
          [
            -80.00042301396107,
            9.318260929767256
          ]
        ],
        "type": "LineString"
      },
      "properties": {
        "category": "passage",
        "distance_nm": "53.2",
        "land_legs": [
          3,
          11,
          21,
          60
        ],
        "name": "Panama Canal (part 4/5)",
        "part": 4,
        "parts": 5,
        "stroke": "#0000ff",
        "stroke-opacity": 0.8,
        "stroke-width": 3
      },
      "type": "Feature"
    },
    {
      "geometry": {
        "coordinates": [
          [
            -80.00151323508632,
            9.3194906717787
          ],
          [
            -80.00402471139505,
            9.322649567632078
          ],
          [
            -80.05,
            9.4
          ]
        ],
        "type": "LineString"
      },
      "properties": {
        "category": "passage",
        "distance_nm": "53.2",
        "land_legs": [
          3,
          11,
          21,
          60
        ],
        "name": "Panama Canal (part 5/5)",
        "part": 5,
        "parts": 5,
        "stroke": "#0000ff",
        "stroke-opacity": 0.8,
        "stroke-width": 3
      },
      "type": "Feature"
    },
    {
      "geometry": {
        "coordinates": [
          -79.45,
          8.8
        ],
        "type": "Point"
      },
      "properties": {
        "marker-color": "#00cc00",
        "marker-size": "small",
        "marker-symbol": "circle",
        "name": "Panama Canal (start)"
      },
      "type": "Feature"
    },
    {
      "geometry": {
        "coordinates": [
          -80.05,
          9.4
        ],
        "type": "Point"
      },
      "properties": {
        "marker-color": "#ff0000",
        "marker-size": "small",
        "marker-symbol": "circle",
        "name": "Panama Canal (end)"
      },
      "type": "Feature"
    },
    {
      "geometry": {
        "coordinates": [
          [
            10.2,
            54.4
          ],
          [
            10.193073760844497,
            54.39055119141016
          ]
        ],
        "type": "LineString"
      },
      "properties": {
        "category": "passage",
        "distance_nm": "84.2",
        "land_legs": [
          1,
          4,
          58
        ],
        "name": "Kiel Canal (part 1/3)",
        "part": 1,
        "parts": 3,
        "stroke": "#0000ff",
        "stroke-opacity": 0.8,
        "stroke-width": 3
      },
      "type": "Feature"
    },
    {
      "geometry": {
        "coordinates": [
          [
            10.193099125714424,
            54.39035872420867
          ],
          [
            10.15414387494416,
            54.36896793026361
          ],
          [
            10.149380262684506,
            54.36625944392091
          ]
        ],
        "type": "LineString"
      },
      "properties": {
        "category": "passage",
        "distance_nm": "84.2",
        "land_legs": [
          1,
          4,
          58
        ],
        "name": "Kiel Canal (part 2/3)",
        "part": 2,
        "parts": 3,
        "stroke": "#0000ff",
        "stroke-opacity": 0.8,
        "stroke-width": 3
      },
      "type": "Feature"
    },
    {
      "geometry": {
        "coordinates": [
          [
            10.148720859847105,
            54.36605521017617
          ],
          [
            10.14786543569335,
            54.365736297697545
          ],
          [
            10.142394029948584,
            54.365983911293156
          ],
          [
            10.098444778205513,
            54.37129896488986
          ],
          [
            10.083834545941718,
            54.37000312194973
          ],
          [
            10.075659288017679,
            54.36757318483897
          ],
          [
            10.06200274117025,
            54.3619285259686
          ],
          [
            10.053419999880301,
            54.359801389947364
          ],
          [
            10.030423394463572,
            54.36047859799848
          ],
          [
            10.026772804511072,
            54.36015282590879
          ],
          [
            10.020807949761888,
            54.35937682655826
          ],
          [
            10.013082661513742,
            54.35756672917694
          ],
          [
            9.989764714628178,
            54.346958382362516
          ],
          [
            9.977631663754751,
            54.34382538519218
          ],
          [
            9.942519229412264,
            54.34135276853777
          ],
          [
            9.930983608690605,
            54.34201869354982
          ],
          [
            9.914932785209364,
            54.3460260141195
          ],
          [
            9.857603757290372,
            54.36299367634271
          ],
          [
            9.808094151952162,
            54.3632629784363
          ],
          [
            9.789958824074224,
            54.36092729478663
          ],
          [
            9.763654678375161,
            54.348298940195825
          ],
          [
            9.724263529933,
            54.327545135300355
          ],
          [
            9.716784160597658,
            54.321840830440394
          ],
          [
            9.708613503673346,
            54.30369737982632
          ],
          [
            9.70260200887338,
            54.299587028866064
          ],
          [
            9.69458067309586,
            54.29592441138298
          ],
          [
            9.653979591692211,
            54.288423243091586
          ],
          [
            9.644387067087521,
            54.284367625571655
          ],
          [
            9.636828567199286,
            54.27932973918755
          ],
          [
            9.627428914439028,
            54.26753940480978
          ],
          [
            9.602096443518677,
            54.227637376399095
          ],
          [
            9.588258899731857,
            54.21610472941565
          ],
          [
            9.550937739060348,
            54.198960142738684
          ],
          [
            9.531275381218848,
            54.192337994162116
          ],
          [
            9.446769613978853,
            54.173801797020424
          ],
          [
            9.401925701932615,
            54.16101685921453
          ],
          [
            9.364887131180485,
            54.150322579750025
          ],
          [
            9.34308138239054,
            54.14106777427609
          ],
          [
            9.331597760528593,
            54.12903174445489
          ],
          [
            9.328808886005936,
            54.1178225426572
          ],
          [
            9.328420325446546,
            54.09760394851231
          ],
          [
            9.308543052046934,
            54.0573752746915
          ],
          [
            9.291423532372862,
            53.998196165400245
          ],
          [
            9.280993806541984,
            53.98417342195833
          ],
          [
            9.191891556542927,
            53.91969505192705
          ],
          [
            9.14210334778961,
            53.892562430981776
          ],
          [
            9.129625813013286,
            53.88791664540825
          ],
          [
            9.12282966817959,
            53.88691182126917
          ],
          [
            9.072025004463722,
            53.889504172740246
          ],
          [
            8.966934800305419,
            53.89118775241107
          ],
          [
            8.8993868283112,
            53.93252439332934
          ],
          [
            8.801355942345685,
            54.02485684516729
          ],
          [
            8.804561164300555,
            54.20328641173483
          ],
          [
            8.795910253067982,
            54.24303008217672
          ]
        ],
        "type": "LineString"
      },
      "properties": {
        "category": "passage",
        "distance_nm": "84.2",
        "land_legs": [
          1,
          4,
          58
        ],
        "name": "Kiel Canal (part 3/3)",
        "part": 3,
        "parts": 3,
        "stroke": "#0000ff",
        "stroke-opacity": 0.8,
        "stroke-width": 3
      },
      "type": "Feature"
    },
    {
      "geometry": {
        "coordinates": [
          10.2,
          54.4
        ],
        "type": "Point"
      },
      "properties": {
        "marker-color": "#00cc00",
        "marker-size": "small",
        "marker-symbol": "circle",
        "name": "Kiel Canal (start)"
      },
      "type": "Feature"
    },
    {
      "geometry": {
        "coordinates": [
          9.1,
          54.25
        ],
        "type": "Point"
      },
      "properties": {
        "marker-color": "#ff0000",
        "marker-size": "small",
        "marker-symbol": "circle",
        "name": "Kiel Canal (end)"
      },
      "type": "Feature"
    },
    {
      "geometry": {
        "coordinates": [
          [
            22.95,
            37.95
          ],
          [
            22.957040348182026,
            37.95119694195018
          ]
        ],
        "type": "LineString"
      },
      "properties": {
        "category": "passage",
        "distance_nm": "6.4",
        "land_legs": [
          1,
          3
        ],
        "name": "Corinth Canal (part 1/3)",
        "part": 1,
        "parts": 3,
        "stroke": "#0000ff",
        "stroke-opacity": 0.8,
        "stroke-width": 3
      },
      "type": "Feature"
    },
    {
      "geometry": {
        "coordinates": [
          [
            22.95859651090373,
            37.951567114489244
          ],
          [
            22.959211181125738,
            37.95154971523153
          ]
        ],
        "type": "LineString"
      },
      "properties": {
        "category": "passage",
        "distance_nm": "6.4",
        "land_legs": [
          1,
          3
        ],
        "name": "Corinth Canal (part 2/3)",
        "part": 2,
        "parts": 3,
        "stroke": "#0000ff",
        "stroke-opacity": 0.8,
        "stroke-width": 3
      },
      "type": "Feature"
    },
    {
      "geometry": {
        "coordinates": [
          [
            22.960042590457295,
            37.95146700312372
          ],
          [
            22.99687860659267,
            37.925445027332
          ],
          [
            23.007461587838588,
            37.917861797158814
          ],
          [
            23.05,
            37.88
          ]
        ],
        "type": "LineString"
      },
      "properties": {
        "category": "passage",
        "distance_nm": "6.4",
        "land_legs": [
          1,
          3
        ],
        "name": "Corinth Canal (part 3/3)",
        "part": 3,
        "parts": 3,
        "stroke": "#0000ff",
        "stroke-opacity": 0.8,
        "stroke-width": 3
      },
      "type": "Feature"
    },
    {
      "geometry": {
        "coordinates": [
          22.95,
          37.95
        ],
        "type": "Point"
      },
      "properties": {
        "marker-color": "#00cc00",
        "marker-size": "small",
        "marker-symbol": "circle",
        "name": "Corinth Canal (start)"
      },
      "type": "Feature"
    },
    {
      "geometry": {
        "coordinates": [
          23.05,
          37.88
        ],
        "type": "Point"
      },
      "properties": {
        "marker-color": "#ff0000",
        "marker-size": "small",
        "marker-symbol": "circle",
        "name": "Corinth Canal (end)"
      },
      "type": "Feature"
    },
    {
      "geometry": {
        "coordinates": [
          [
            28.9,
            40.85
          ],
          [
            29.00899374878434,
            41.02796153377142
          ],
          [
            29.049016511079593,
            41.06327685009166
          ],
          [
            29.06198299891441,
            41.095061010439046
          ],
          [
            29.073432924595625,
            41.12736176981215
          ],
          [
            29.069329560182652,
            41.146319767886816
          ],
          [
            29.072167385927784,
            41.167554092763005
          ],
          [
            29.111243461842335,
            41.210166996627514
          ],
          [
            29.15,
            41.35
          ]
        ],
        "type": "LineString"
      },
      "properties": {
        "category": "passage",
        "distance_nm": "32.7",
        "land_legs": [],
        "name": "Bosphorus",
        "stroke": "#0000ff",
        "stroke-opacity": 0.8,
        "stroke-width": 3
      },
      "type": "Feature"
    },
    {
      "geometry": {
        "coordinates": [
          28.9,
          40.85
        ],
        "type": "Point"
      },
      "properties": {
        "marker-color": "#00cc00",
        "marker-size": "small",
        "marker-symbol": "circle",
        "name": "Bosphorus (start)"
      },
      "type": "Feature"
    },
    {
      "geometry": {
        "coordinates": [
          29.15,
          41.35
        ],
        "type": "Point"
      },
      "properties": {
        "marker-color": "#ff0000",
        "marker-size": "small",
        "marker-symbol": "circle",
        "name": "Bosphorus (end)"
      },
      "type": "Feature"
    },
    {
      "geometry": {
        "coordinates": [
          [
            26.704386039674144,
            40.51518940190527
          ],
          [
            26.610878416305653,
            40.5093090756934
          ],
          [
            26.318566058403842,
            40.38064027556878
          ],
          [
            26.21327486092728,
            40.31637846976234
          ],
          [
            26.15,
            40.0
          ]
        ],
        "type": "LineString"
      },
      "properties": {
        "category": "passage",
        "distance_nm": "45.1",
        "land_legs": [
          0
        ],
        "name": "Dardanelles",
        "stroke": "#0000ff",
        "stroke-opacity": 0.8,
        "stroke-width": 3
      },
      "type": "Feature"
    },
    {
      "geometry": {
        "coordinates": [
          26.72,
          40.5
        ],
        "type": "Point"
      },
      "properties": {
        "marker-color": "#00cc00",
        "marker-size": "small",
        "marker-symbol": "circle",
        "name": "Dardanelles (start)"
      },
      "type": "Feature"
    },
    {
      "geometry": {
        "coordinates": [
          26.15,
          40.0
        ],
        "type": "Point"
      },
      "properties": {
        "marker-color": "#ff0000",
        "marker-size": "small",
        "marker-symbol": "circle",
        "name": "Dardanelles (end)"
      },
      "type": "Feature"
    },
    {
      "geometry": {
        "coordinates": [
          [
            103.90216469710457,
            1.2904878247734803
          ],
          [
            103.8521539968382,
            1.2592714221077308
          ],
          [
            103.831181340721,
            1.265295568733555
          ],
          [
            103.81868426814088,
            1.2607822037588108
          ],
          [
            103.80661556826773,
            1.2606250757985331
          ],
          [
            103.66764342271948,
            1.2088815090150578
          ],
          [
            103.45,
            1.15
          ]
        ],
        "type": "LineString"
      },
      "properties": {
        "category": "passage",
        "distance_nm": "28.8",
        "land_legs": [
          0
        ],
        "name": "Malacca Strait",
        "stroke": "#0000ff",
        "stroke-opacity": 0.8,
        "stroke-width": 3
      },
      "type": "Feature"
    },
    {
      "geometry": {
        "coordinates": [
          103.9,
          1.3
        ],
        "type": "Point"
      },
      "properties": {
        "marker-color": "#00cc00",
        "marker-size": "small",
        "marker-symbol": "circle",
        "name": "Malacca Strait (start)"
      },
      "type": "Feature"
    },
    {
      "geometry": {
        "coordinates": [
          103.45,
          1.15
        ],
        "type": "Point"
      },
      "properties": {
        "marker-color": "#ff0000",
        "marker-size": "small",
        "marker-symbol": "circle",
        "name": "Malacca Strait (end)"
      },
      "type": "Feature"
    },
    {
      "geometry": {
        "coordinates": [
          [
            103.77903261601838,
            1.2704569771585563
          ],
          [
            103.77774727234139,
            1.2573863867850308
          ],
          [
            103.86440952765527,
            1.2034579059611348
          ],
          [
            104.2,
            1.22
          ]
        ],
        "type": "LineString"
      },
      "properties": {
        "category": "passage",
        "distance_nm": "27.1",
        "land_legs": [
          0
        ],
        "name": "Singapore Strait",
        "stroke": "#0000ff",
        "stroke-opacity": 0.8,
        "stroke-width": 3
      },
      "type": "Feature"
    },
    {
      "geometry": {
        "coordinates": [
          103.8,
          1.3
        ],
        "type": "Point"
      },
      "properties": {
        "marker-color": "#00cc00",
        "marker-size": "small",
        "marker-symbol": "circle",
        "name": "Singapore Strait (start)"
      },
      "type": "Feature"
    },
    {
      "geometry": {
        "coordinates": [
          104.2,
          1.22
        ],
        "type": "Point"
      },
      "properties": {
        "marker-color": "#ff0000",
        "marker-size": "small",
        "marker-symbol": "circle",
        "name": "Singapore Strait (end)"
      },
      "type": "Feature"
    },
    {
      "geometry": {
        "coordinates": [
          [
            15.65,
            38.3
          ],
          [
            15.653960053155869,
            38.26557805629445
          ],
          [
            15.628251919236446,
            38.219065424431776
          ],
          [
            15.630294597660386,
            38.08379382194584
          ],
          [
            15.651116121680985,
            38.0400460371692
          ]
        ],
        "type": "LineString"
      },
      "properties": {
        "category": "passage",
        "distance_nm": "16.0",
        "land_legs": [
          4
        ],
        "name": "Messina Strait",
        "stroke": "#0000ff",
        "stroke-opacity": 0.8,
        "stroke-width": 3
      },
      "type": "Feature"
    },
    {
      "geometry": {
        "coordinates": [
          15.65,
          38.3
        ],
        "type": "Point"
      },
      "properties": {
        "marker-color": "#00cc00",
        "marker-size": "small",
        "marker-symbol": "circle",
        "name": "Messina Strait (start)"
      },
      "type": "Feature"
    },
    {
      "geometry": {
        "coordinates": [
          15.67,
          38.05
        ],
        "type": "Point"
      },
      "properties": {
        "marker-color": "#ff0000",
        "marker-size": "small",
        "marker-symbol": "circle",
        "name": "Messina Strait (end)"
      },
      "type": "Feature"
    },
    {
      "geometry": {
        "coordinates": [
          [
            1.3275438933612835,
            51.118041115289024
          ],
          [
            1.328687659804662,
            51.11280279071948
          ],
          [
            1.675642288396708,
            50.90596475688409
          ]
        ],
        "type": "LineString"
      },
      "properties": {
        "category": "passage",
        "distance_nm": "18.4",
        "land_legs": [
          0,
          3
        ],
        "name": "Dover Strait",
        "stroke": "#0000ff",
        "stroke-opacity": 0.8,
        "stroke-width": 3
      },
      "type": "Feature"
    },
    {
      "geometry": {
        "coordinates": [
          1.3,
          51.15
        ],
        "type": "Point"
      },
      "properties": {
        "marker-color": "#00cc00",
        "marker-size": "small",
        "marker-symbol": "circle",
        "name": "Dover Strait (start)"
      },
      "type": "Feature"
    },
    {
      "geometry": {
        "coordinates": [
          1.75,
          50.85
        ],
        "type": "Point"
      },
      "properties": {
        "marker-color": "#ff0000",
        "marker-size": "small",
        "marker-symbol": "circle",
        "name": "Dover Strait (end)"
      },
      "type": "Feature"
    }
  ],
  "type": "FeatureCollection"
}